starlink a
1 44235U 19029A   19193.76579958  .00000677  00000-0  65506-4 0  9994
2 44235  52.9996 309.3115 0003048 140.7341 219.3868 15.05665252  8762
